CTC1_L_00631001-01
1 43205U 25042UA  26037.47810185  .00000000  00000+0  00000-0 0  9998
2 43205  70.0000   0.0000 0000000   0.0000   0.0000  4.14196110    11
CTC1_L_00631001-02
1 43206U 26125ZN  26037.47810185  .00000000  00000+0  00000-0 0  9992
2 43206  70.0000   0.0000 0000000   0.0000  36.0000  4.14196110    11
CTC1_L_00631001-03
1 43207U 22493KN  26037.47810185  .00000000  00000+0  00000-0 0  9997
2 43207  70.0000   0.0000 0000000   0.0000  72.0000  4.14196110    12
CTC1_L_00631001-04
1 43208U 22966LX  26037.47810185  .00000000  00000+0  00000-0 0  9993
2 43208  70.0000   0.0000 0000000   0.0000 108.0000  4.14196110    13
CTC1_L_00631001-05
1 43209U 26721CQ  26037.47810185  .00000000  00000+0  00000-0 0  9997
2 43209  70.0000   0.0000 0000000   0.0000 144.0000  4.14196110    14
CTC1_L_00631001-06
1 43210U 25585HU  26037.47810185  .00000000  00000+0  00000-0 0  9996
2 43210  70.0000   0.0000 0000000   0.0000 180.0000  4.14196110    16
CTC1_L_00631001-07
1 43211U 26816BE  26037.47810185  .00000000  00000+0  00000-0 0  9995
2 43211  70.0000   0.0000 0000000   0.0000 216.0000  4.14196110    17
CTC1_L_00631001-08
1 43212U 24134K   26037.47810185  .00000000  00000+0  00000-0 0  9997
2 43212  70.0000   0.0000 0000000   0.0000 252.0000  4.14196110    18
CTC1_L_00631001-09
1 43213U 25650EF  26037.47810185  .00000000  00000+0  00000-0 0  9992
2 43213  70.0000   0.0000 0000000   0.0000 288.0000  4.14196110    18
CTC1_L_00631001-10
1 43214U 25841XS  26037.47810185  .00000000  00000+0  00000-0 0  9995
2 43214  70.0000   0.0000 0000000   0.0000 324.0000  4.14196110    10
CTC1_L_00631002-01
1 43215U 25237HF  26037.47810185  .00000000  00000+0  00000-0 0  9995
2 43215  70.0000  30.0000 0000000   0.0000  12.0000  4.14196110    18
CTC1_L_00631002-02
1 43216U 25080WS  26037.47810185  .00000000  00000+0  00000-0 0  9992
2 43216  70.0000  30.0000 0000000   0.0000  48.0000  4.14196110    18
CTC1_L_00631002-03
1 43217U 22659NP  26037.47810185  .00000000  00000+0  00000-0 0  9992
2 43217  70.0000  30.0000 0000000   0.0000  84.0000  4.14196110    19
CTC1_L_00631002-04
1 43218U 25964KM  26037.47810185  .00000000  00000+0  00000-0 0  9995
2 43218  70.0000  30.0000 0000000   0.0000 120.0000  4.14196110    11
CTC1_L_00631002-05
1 43219U 23781PP  26037.47810185  .00000000  00000+0  00000-0 0  9991
2 43219  70.0000  30.0000 0000000   0.0000 156.0000  4.14196110    11
CTC1_L_00631002-06
1 43220U 24079QJ  26037.47810185  .00000000  00000+0  00000-0 0  9994
2 43220  70.0000  30.0000 0000000   0.0000 192.0000  4.14196110    13
CTC1_L_00631002-07
1 43221U 22232CX  26037.47810185  .00000000  00000+0  00000-0 0  9994
2 43221  70.0000  30.0000 0000000   0.0000 228.0000  4.14196110    14
CTC1_L_00631002-08
1 43222U 26534XT  26037.47810185  .00000000  00000+0  00000-0 0  9994
2 43222  70.0000  30.0000 0000000   0.0000 264.0000  4.14196110    15
CTC1_L_00631002-09
1 43223U 25437CM  26037.47810185  .00000000  00000+0  00000-0 0  9996
2 43223  70.0000  30.0000 0000000   0.0000 300.0000  4.14196110    17
CTC1_L_00631002-10
1 43224U 23999DF  26037.47810185  .00000000  00000+0  00000-0 0  9998
2 43224  70.0000  30.0000 0000000   0.0000 336.0000  4.14196110    17
CTC1_L_00631003-01
1 43225U 23649BC  26037.47810185  .00000000  00000+0  00000-0 0  9991
2 43225  70.0000  60.0000 0000000   0.0000  24.0000  4.14196110    15
CTC1_L_00631003-02
1 43226U 25543GR  26037.47810185  .00000000  00000+0  00000-0 0  9997
2 43226  70.0000  60.0000 0000000   0.0000  60.0000  4.14196110    16
CTC1_L_00631003-03
1 43227U 24094TJ  26037.47810185  .00000000  00000+0  00000-0 0  9998
2 43227  70.0000  60.0000 0000000   0.0000  96.0000  4.14196110    16
CTC1_L_00631003-04
1 43228U 22735IB  26037.47810185  .00000000  00000+0  00000-0 0  9999
2 43228  70.0000  60.0000 0000000   0.0000 132.0000  4.14196110    18
CTC1_L_00631003-05
1 43229U 23718ZY  26037.47810185  .00000000  00000+0  00000-0 0  9992
2 43229  70.0000  60.0000 0000000   0.0000 168.0000  4.14196110    18
CTC1_L_00631003-06
1 43230U 23454IM  26037.47810185  .00000000  00000+0  00000-0 0  9991
2 43230  70.0000  60.0000 0000000   0.0000 204.0000  4.14196110    11
CTC1_L_00631003-07
1 43231U 24102OM  26037.47810185  .00000000  00000+0  00000-0 0  9993
2 43231  70.0000  60.0000 0000000   0.0000 240.0000  4.14196110    12
CTC1_L_00631003-08
1 43232U 22079JY  26037.47810185  .00000000  00000+0  00000-0 0  9995
2 43232  70.0000  60.0000 0000000   0.0000 276.0000  4.14196110    12
CTC1_L_00631003-09
1 43233U 22975FY  26037.47810185  .00000000  00000+0  00000-0 0  9991
2 43233  70.0000  60.0000 0000000   0.0000 312.0000  4.14196110    14
CTC1_L_00631003-10
1 43234U 26711SK  26037.47810185  .00000000  00000+0  00000-0 0  9994
2 43234  70.0000  60.0000 0000000   0.0000 348.0000  4.14196110    14
CTC1_L_00631004-01
1 43235U 25449QA  26037.47810185  .00000000  00000+0  00000-0 0  9992
2 43235  70.0000  90.0000 0000000   0.0000  36.0000  4.14196110    12
CTC1_L_00631004-02
1 43236U 25728RB  26037.47810185  .00000000  00000+0  00000-0 0  9993
2 43236  70.0000  90.0000 0000000   0.0000  72.0000  4.14196110    13
CTC1_L_00631004-03
1 43237U 24291PT  26037.47810185  .00000000  00000+0  00000-0 0  9998
2 43237  70.0000  90.0000 0000000   0.0000 108.0000  4.14196110    14
CTC1_L_00631004-04
1 43238U 22311UZ  26037.47810185  .00000000  00000+0  00000-0 0  9990
2 43238  70.0000  90.0000 0000000   0.0000 144.0000  4.14196110    15
CTC1_L_00631004-05
1 43239U 24065MA  26037.47810185  .00000000  00000+0  00000-0 0  9999
2 43239  70.0000  90.0000 0000000   0.0000 180.0000  4.14196110    16
CTC1_L_00631004-06
1 43240U 23199IS  26037.47810185  .00000000  00000+0  00000-0 0  9998
2 43240  70.0000  90.0000 0000000   0.0000 216.0000  4.14196110    18
CTC1_L_00631004-07
1 43241U 25639MN  26037.47810185  .00000000  00000+0  00000-0 0  9990
2 43241  70.0000  90.0000 0000000   0.0000 252.0000  4.14196110    19
CTC1_L_00631004-08
1 43242U 25880PZ  26037.47810185  .00000000  00000+0  00000-0 0  9999
2 43242  70.0000  90.0000 0000000   0.0000 288.0000  4.14196110    19
CTC1_L_00631004-09
1 43243U 23669HO  26037.47810185  .00000000  00000+0  00000-0 0  9993
2 43243  70.0000  90.0000 0000000   0.0000 324.0000  4.14196110    11
CTC1_L_00631004-10
1 43244U 25252NG  26037.47810185  .00000000  00000+0  00000-0 0  9994
2 43244  70.0000  90.0000 0000000   0.0000   0.0000  4.14196110    13
CTC1_L_00631005-01
1 43245U 23127QZ  26037.47810185  .00000000  00000+0  00000-0 0  9994
2 43245  70.0000 120.0000 0000000   0.0000  48.0000  4.14196110    10
CTC1_L_00631005-02
1 43246U 23928HC  26037.47810185  .00000000  00000+0  00000-0 0  9994
2 43246  70.0000 120.0000 0000000   0.0000  84.0000  4.14196110    11
CTC1_L_00631005-03
1 43247U 24611PR  26037.47810185  .00000000  00000+0  00000-0 0  9995
2 43247  70.0000 120.0000 0000000   0.0000 120.0000  4.14196110    13
CTC1_L_00631005-04
1 43248U 23802DW  26037.47810185  .00000000  00000+0  00000-0 0  9997
2 43248  70.0000 120.0000 0000000   0.0000 156.0000  4.14196110    13
CTC1_L_00631005-05
1 43249U 24211PL  26037.47810185  .00000000  00000+0  00000-0 0  9993
2 43249  70.0000 120.0000 0000000   0.0000 192.0000  4.14196110    14
CTC1_L_00631005-06
1 43250U 26587WH  26037.47810185  .00000000  00000+0  00000-0 0  9993
2 43250  70.0000 120.0000 0000000   0.0000 228.0000  4.14196110    16
CTC1_L_00631005-07
1 43251U 25512BF  26037.47810185  .00000000  00000+0  00000-0 0  9991
2 43251  70.0000 120.0000 0000000   0.0000 264.0000  4.14196110    17
CTC1_L_00631005-08
1 43252U 25368SP  26037.47810185  .00000000  00000+0  00000-0 0  9991
2 43252  70.0000 120.0000 0000000   0.0000 300.0000  4.14196110    19
CTC1_L_00631005-09
1 43253U 25090LP  26037.47810185  .00000000  00000+0  00000-0 0  9994
2 43253  70.0000 120.0000 0000000   0.0000 336.0000  4.14196110    19
CTC1_L_00631005-10
1 43254U 22367FD  26037.47810185  .00000000  00000+0  00000-0 0  9999
2 43254  70.0000 120.0000 0000000   0.0000  12.0000  4.14196110    11
CTC1_L_00631006-01
1 43255U 26769ON  26037.47810185  .00000000  00000+0  00000-0 0  9990
2 43255  70.0000 150.0000 0000000   0.0000  60.0000  4.14196110    18
CTC1_L_00631006-02
1 43256U 23595QV  26037.47810185  .00000000  00000+0  00000-0 0  9995
2 43256  70.0000 150.0000 0000000   0.0000  96.0000  4.14196110    18
CTC1_L_00631006-03
1 43257U 22005XR  26037.47810185  .00000000  00000+0  00000-0 0  9991
2 43257  70.0000 150.0000 0000000   0.0000 132.0000  4.14196110    10
CTC1_L_00631006-04
1 43258U 23483LJ  26037.47810185  .00000000  00000+0  00000-0 0  9993
2 43258  70.0000 150.0000 0000000   0.0000 168.0000  4.14196110    10
CTC1_L_00631006-05
1 43259U 26424BM  26037.47810185  .00000000  00000+0  00000-0 0  9992
2 43259  70.0000 150.0000 0000000   0.0000 204.0000  4.14196110    12
CTC1_L_00631006-06
1 43260U 22873OM  26037.47810185  .00000000  00000+0  00000-0 0  9998
2 43260  70.0000 150.0000 0000000   0.0000 240.0000  4.14196110    14
CTC1_L_00631006-07
1 43261U 26623WA  26037.47810185  .00000000  00000+0  00000-0 0  9996
2 43261  70.0000 150.0000 0000000   0.0000 276.0000  4.14196110    14
CTC1_L_00631006-08
1 43262U 22972IK  26037.47810185  .00000000  00000+0  00000-0 0  9990
2 43262  70.0000 150.0000 0000000   0.0000 312.0000  4.14196110    16
CTC1_L_00631006-09
1 43263U 23843IT  26037.47810185  .00000000  00000+0  00000-0 0  9999
2 43263  70.0000 150.0000 0000000   0.0000 348.0000  4.14196110    16
CTC1_L_00631006-10
1 43264U 23164RA  26037.47810185  .00000000  00000+0  00000-0 0  9996
2 43264  70.0000 150.0000 0000000   0.0000  24.0000  4.14196110    18
CTC1_L_00631007-01
1 43265U 22013LU  26037.47810185  .00000000  00000+0  00000-0 0  9999
2 43265  70.0000 180.0000 0000000   0.0000  72.0000  4.14196110    15
CTC1_L_00631007-02
1 43266U 24956IG  26037.47810185  .00000000  00000+0  00000-0 0  9998
2 43266  70.0000 180.0000 0000000   0.0000 108.0000  4.14196110    16
